P/2015 T3 (PANSTARRS),e,13.0937,120.5019,178.6330,4.326181,0.1095335,0.50818108,359.9227,12/21.0/2014,2000,g 14.0,4.0
# From MPC102953
C/2015 T4 (PANSTARRS),e,87.9627,251.7996,270.0566,80.51951,0.0013641,0.97147538,0.0000,06/17.5894/2016,2000,g 11.0,4.0
# From MPC102097
C/2015 T5 (Sheppard-Tholen),e,11.0490,311.0812,61.7916,28.05241,0.0066336,0.66732339,9.5531,01/01.0/2020,2000,g  7.5,4.0
# From MPC102953
P/2015 TO19 (Lemmon-PANSTARRS),e,6.4993,321.6426,89.2110,4.557896,0.1012879,0.35773238,141.4438,01/01.0/2020,2000,g 14.0,4.0
# From MPC110080
P/2015 TP200 (LINEAR),e,8.7729,6.9800,82.7351,7.283712,0.0501389,0.53493683,58.1834,01/01.0/2020,2000,g 11.0,4.0
# From MPC101097
C/2015 TQ209 (LINEAR),e,11.3103,223.4287,282.1100,716.3801,0.0000514,0.99802471,0.0000,08/26.4934/2016,2000,g 10.5,4.0
# From MPC115881
C/2015 V1 (PANSTARRS),e,139.2234,197.1872,179.6176,5205,0.0000026,0.99918014,0.0000,12/17.4036/2017,2000,g  6.5,4.0
# From MPC112390
C/2015 V2 (Johnson),h,06/12.2207/2017,49.8736,69.8548,164.9722,1.001830,1.640593,2000,5.0,4.0
# From MPC102953
C/2015 V3 (PANSTARRS),e,86.2392,2.2666,0.7092,627.5052,0.0000627,0.99325677,0.0000,11/24.0088/2015,2000,g  9.0,4.0
# From MPC104791
C/2015 V4 (PANSTARRS),e,60.7610,179.9113,307.0543,18.51073,0.0123757,0.70483056,15.0994,01/01.0/2020,2000,g  8.5,4.0
# From MPC115881
C/2015 VL62 (Lemmon-Yeung-PANSTARRS),h,08/28.1130/2017,165.8151,95.0895,128.7226,1.001184,2.713611,2000,8.0,4.0
# From MPC102098
C/2015 WZ (PANSTARRS),e,134.5607,40.1364,66.6540,146.4890,0.0005559,0.99059857,0.0000,04/14.1070/2016,2000,g 15.0,4.0
# From MPC109142
C/2015 W1 (Gibbs),h,05/15.5909/2016,87.3718,114.3161,48.1971,1.000202,2.240808,2000,13.0,4.0
# From MPC101098
P/2015 W2 (Catalina),e,11.6069,294.2519,117.5749,7.302059,0.0499501,0.63331137,77.6187,01/01.0/2020,2000,g 13.0,4.0
# From MPC101098
P/2015 X1 (PANSTARRS),e,12.1519,161.7756,218.9946,3.630481,0.1424813,0.41892509,220.2756,01/01.0/2020,2000,g 16.0,4.0
# From MPC118840
C/2015 XY1 (Lemmon),h,04/28.7666/2018,148.8556,281.6254,196.2879,1.003997,7.926257,2000,5.5,4.0
# From MPC100281
C/2015 X2 (Catalina),e,72.1041,101.1011,42.3719,15.83868,0.0156360,0.87838701,23.0443,01/01.0/2020,2000,g 16.0,4.0
# From MPC 97498
P/2015 X3 (PANSTARRS),e,24.3823,77.3342,306.6716,5.012314,0.0878308,0.43812093,141.2231,01/01.0/2020,2000,g 15.0,4.0
# From MPC109142
C/2015 X4 (Elenin),e,29.5007,262.6219,176.2766,17.97204,0.0129362,0.81119582,19.6701,01/01.0/2020,2000,g 10.0,4.0
# From MPC118840
C/2015 X5 (PANSTARRS),h,12/30.2831/2017,124.3076,122.3411,27.7102,1.002989,6.799914,2000,7.5,4.0
# From MPC115881
P/2015 X6 (PANSTARRS),e,4.5648,106.9472,329.8997,2.752402,0.2158422,0.17229826,297.3533,01/01.0/2020,2000,g 16.0,4.0
# From MPC109143
C/2015 X7 (ATLAS),h,07/29.6130/2016,57.5628,139.9073,348.4656,1.000338,3.685327,2000,9.0,4.0
# From MPC107048
C/2015 X8 (NEOWISE),e,155.2172,191.1483,20.4312,19.76606,0.0112156,0.93996541,17.1589,01/01.0/2020,2000,g 16.0,4.0
# From MPC109143
C/2015 Y1 (LINEAR),e,71.1762,135.8110,24.6971,257.2081,0.0002389,0.99021655,0.0000,05/14.3931/2016,2000,g 12.0,4.0
# From MPC105543
C/2015 YG1 (NEOWISE),e,57.2727,350.5195,102.5309,17.01446,0.0140435,0.87854255,21.8547,01/01.0/2020,2000,g 13.0,4.0
# From MPC118840
C/2016 A1 (PANSTARRS),h,11/23.0841/2017,121.2044,128.1993,10.2954,1.002049,5.326032,2000,6.0,4.0
# From MPC100282
P/2016 A2 (Christensen),e,26.4062,291.6162,141.6562,4.748269,0.0952579,0.27153009,157.4881,01/01.0/2020,2000,g 11.5,4.0
# From MPC115881
P/2016 A3 (PANSTARRS),e,8.5142,187.3556,340.6933,7.886395,0.0445027,0.38839034,43.4757,01/01.0/2020,2000,g 10.0,4.0
# From MPC109143
C/2016 A5 (PANSTARRS),e,40.2397,136.1645,321.5521,675.7168,0.0000561,0.99564149,0.0000,06/26.8531/2015,2000,g 13.5,4.0
# From MPC109143
C/2016 A6 (PANSTARRS),e,120.9356,300.3645,141.0818,207.5293,0.0003297,0.98840019,0.0000,11/06.2811/2015,2000,g 15.0,4.0
# From MPC102098
P/2016 A7 (PANSTARRS),e,16.6306,221.4737,352.6258,5.030028,0.0873672,0.56579658,122.8018,01/01.0/2020,2000,g 16.0,4.0
# From MPC106345
C/2016 A8 (LINEAR),e,148.2431,111.3378,130.3543,34.28158,0.0049104,0.94502795,5.9873,01/01.0/2020,2000,g 12.0,4.0
# From MPC107048
C/2016 B1 (NEOWISE),e,50.4696,231.9701,8.6606,439.5667,0.0001069,0.99269292,0.0000,12/04.8399/2016,2000,g  9.5,4.0
# From MPC109143
P/2016 BA14 (PANSTARRS),e,18.8985,180.5379,351.9121,3.023947,0.1874316,0.66530842,260.0401,01/01.0/2020,2000,g 21.0,4.0
# From MPC110494
C/2016 C1 (PANSTARRS),h,02/19.3933/2016,56.2104,181.7966,328.7854,1.002756,8.467173,2000,5.5,4.0
# From MPC101098
C/2016 C2 (NEOWISE),e,38.0997,24.4209,214.5253,65.86073,0.0018440,0.97623696,0.0000,04/19.6404/2016,2000,g 16.0,4.0
# From MPC110494
C/2016 E1 (PANSTARRS),h,06/03.8891/2017,131.8923,233.0526,47.4503,1.005277,8.179616,2000,6.5,4.0
# From MPC 99821
C/2016 E2 (Kowalski),e,135.9166,186.8108,321.9076,139.3568,0.0005991,0.99227582,0.0000,02/06.6870/2016,2000,g 20.0,4.0
# From MPC102098
P/2016 G1 (PANSTARRS),e,10.9690,204.0595,111.2984,2.582325,0.2375132,0.21087722,253.9497,01/01.0/2020,2000,g 14.0,4.0
# From MPEC 2017-D91
P/2016 J1-A (PANSTARRS),e,14.3249,199.8353,46.8443,3.174334,0.1742710,0.22823079,223.8751,01/01.0/2020,2000,g 16.5,4.0
# From MPEC 2017-A77
P/2016 J1-B (PANSTARRS),e,14.3277,199.8401,46.7355,3.173964,0.1743015,0.22808202,223.9890,01/01.0/2020,2000,g 17.0,4.0
# From MPC101099
C/2016 J2 (Denneau),e,130.3407,186.3266,318.6143,622.3919,0.0000635,0.99755583,0.0000,04/12.0237/2016,2000,g 17.0,4.0
# From MPC102099
C/2016 KA (Catalina),e,104.6752,317.5128,63.1816,4733,0.0000030,0.99885779,0.0000,02/02.0240/2016,2000,g  8.5,4.0
# From MPC104792
C/2016 K1 (LINEAR),e,90.9054,325.6376,18.2652,13399,0.0000006,0.99982887,0.0000,07/13.2613/2016,2000,g 13.0,4.0
# From MPC118840
C/2016 M1 (PANSTARRS),e,91.0006,92.2027,209.8588,3111,0.0000057,0.99928907,0.0000,08/10.2469/2018,2000,g  5.0,4.0
# From MPC115881
C/2016 N4 (MASTER),e,72.5824,354.0069,55.9416,2397,0.0000084,0.99866532,0.0000,09/16.4626/2017,2000,g  8.5,4.0
# From MPC118092
C/2016 N6 (PANSTARRS),e,105.8403,298.9854,162.7804,1923,0.0000117,0.99861224,0.0000,07/18.1460/2018,2000,g  7.0,4.0
# From MPC102099
P/2016 P1 (PANSTARRS),e,24.4531,319.5658,270.0332,3.195121,0.1725731,0.28941326,269.2234,01/01.0/2020,2000,g 15.0,4.0
# From MPC102099
C/2016 P4 (PANSTARRS),e,29.8821,320.7448,356.1287,387.4096,0.0001293,0.98479246,0.0000,10/17.7006/2016,2000,g 10.5,4.0
# From MPC118093
C/2016 Q2 (PANSTARRS),e,109.3906,322.3012,84.4798,11208,0.0000008,0.99936804,0.0000,05/11.2971/2021,2000,g  6.0,4.0
# From MPC102955
C/2016 Q4 (Kowalski),e,7.2577,271.2843,99.3882,16.88184,0.0142094,0.58029399,10.0103,01/01.0/2020,2000,g  7.0,4.0
# From MPC117069
C/2016 R2 (PANSTARRS),e,58.2248,80.5695,33.1913,591.9838,0.0000684,0.99560290,0.0000,05/09.4485/2018,2000,g  7.0,4.0
# From MPC102099
C/2016 R3 (Borisov),e,53.0445,78.6422,118.1857,200.3661,0.0003475,0.99774976,0.0000,10/10.6169/2016,2000,g 18.0,4.0
# From MPC109144
P/2016 R4 (Gibbs),e,10.8670,168.2926,173.9914,5.331824,0.0800553,0.47581956,100.7944,01/01.0/2020,2000,g 12.5,4.0
# From MPC105543
P/2016 S1 (PANSTARRS),e,94.6471,227.5160,273.2674,8.280796,0.0413615,0.71028820,42.2112,01/01.0/2020,2000,g 12.0,4.0
# From MPC105238
C/2016 T1 (Matheny),e,129.8454,56.2671,137.3747,123.1189,0.0007215,0.98129997,0.0000,02/01.3027/2017,2000,g 14.5,4.0
# From MPC107685
C/2016 T2 (Matheny),e,81.3547,339.1386,92.2588,99.19421,0.0009976,0.98077107,0.0000,12/28.9745/2016,2000,g 14.5,4.0
# From MPC110082
C/2016 T3 (PANSTARRS),e,22.6771,271.7423,194.6927,135.1734,0.0006271,0.98039008,0.0000,09/06.7014/2017,2000,g 10.5,4.0
# From MPC103847
C/2016 U1 (NEOWISE),h,01/14.0368/2017,46.4113,61.4473,162.8284,1.000391,0.321293,2000,17.0,4.0
# From MPC106345
C/2016 VZ18 (PANSTARRS),e,24.0115,98.9252,36.3998,173.8058,0.0004301,0.99475006,0.0000,03/06.5998/2017,2000,g 19.5,4.0
# From MPC106345
P/2016 WM48 (Lemmon),e,117.4240,59.9018,36.0984,8.173526,0.0421784,0.78422650,43.8862,01/01.0/2020,2000,g 15.0,4.0
# From MPC118840
C/2016 X1 (Lemmon),e,26.4550,256.4238,224.5355,1483,0.0000173,0.99489970,0.0000,04/29.3558/2019,2000,g  6.0,4.0
# From MPC108594
C/2017 A1 (PANSTARRS),e,49.7942,121.0406,2.0730,77.65048,0.0014404,0.97047926,0.0000,05/16.6263/2017,2000,g 13.0,4.0
# From MPC108594
C/2017 A3 (Elenin),e,98.5373,97.9078,304.0641,43.49626,0.0034358,0.91146316,3.6601,01/01.0/2020,2000,g  9.5,4.0
# From MPC114598
C/2017 AB5 (PANSTARRS),e,32.4332,42.6669,78.3658,3117,0.0000057,0.99704335,0.0000,02/16.6807/2018,2000,g  5.5,4.0
# From MPC118840
C/2017 B3 (LINEAR),h,02/02.6140/2019,54.1771,2.1788,284.7717,1.001999,3.921561,2000,6.0,4.0
# From MPC103847
P/2017 B4 (PANSTARRS),e,20.0584,121.4578,11.0197,4.410520,0.1064068,0.36495152,359.9130,01/05.0/2017,2000,g 14.5,4.0
# From MPC104793
C/2017 C1 (NEOWISE),e,65.7402,357.4797,110.1396,20.63101,0.0105178,0.92723497,11.3327,01/01.0/2020,2000,g 18.0,4.0
# From MPC107685
C/2017 C2 (PANSTARRS),e,118.5898,249.8156,138.6744,97.64432,0.0010215,0.97515401,0.0000,01/21.6203/2017,2000,g 14.0,4.0
# From MPC104793
P/2017 D1 (Fuls),e,20.7621,82.1760,8.1133,4.829289,0.0928708,0.43704151,119.2096,01/01.0/2020,2000,g 14.0,4.0
# From MPC112391
C/2017 D2 (Barros),e,31.2565,330.9905,334.4342,2685,0.0000071,0.99907356,0.0000,07/14.7754/2017,2000,g 11.0,4.0
# From MPC114598
C/2017 D3 (ATLAS),h,04/27.1738/2017,125.5742,186.6423,340.8443,1.001890,4.973900,2000,8.0,4.0
# From MPC110495
P/2017 D4 (PANSTARRS),e,10.5302,264.9372,212.3302,7.571219,0.0473103,0.62893219,57.3135,01/01.0/2020,2000,g 13.0,4.0
# From MPC104794
C/2017 D5 (PANSTARRS),e,131.0598,92.7365,287.8032,114.9881,0.0007993,0.98117968,0.0000,01/09.2528/2017,2000,g 16.0,4.0
# From MPC106346
C/2017 E1 (Borisov),h,04/10.4339/2017,14.5637,142.6238,152.5959,1.002946,0.900498,2000,14.0,4.0
# From MPC109144
C/2017 E2 (Tsuchinshan),e,79.0308,11.5702,89.3932,21.55016,0.0098521,0.89088030,13.0974,01/01.0/2020,2000,g 11.5,4.0
# From MPC115882
C/2017 E3 (PANSTARRS),h,06/08.2126/2017,70.6234,220.7270,334.5114,1.007212,5.936351,2000,6.5,4.0
